NORAD_CAT_ID,OBJECT_NAME,OBJECT_TYPE,EPOCH,MEAN_MOTION,ECCENTRICITY,INCLINATION,RA_OF_ASC_NODE,ARG_OF_PERICENTER,MEAN_ANOMALY,BSTAR,MEAN_MOTION_DOT,MEAN_MOTION_DDOT,TLE_LINE0,TLE_LINE1,TLE_LINE2,SEMIMAJOR_AXIS,PERIOD,APOGEE,PERIGEE,DECAYED
52563.0,STARLINK-3942,PAYLOAD,2024-03-19 09:44:28,15.08835859,0.0001604,53.2172,127.5944,80.4393,279.678,0.00026061,3.862e-05,0.0,0 STARLINK-3942,1 52563U 22051AG  24079.40588357  .00003862  00000-0  26061-3 0  9990,2 52563  53.2172 127.5944 0001604  80.4393 279.6780 15.08835859102704,6917.893,95.438,540.868,538.648,0.0
52563.0,STARLINK-3942,PAYLOAD,2024-03-20 12:46:02,15.08826461,0.0001868,53.2175,122.5418,108.4218,251.6977,0.00018402,2.641e-05,0.0,0 STARLINK-3942,1 52563U 22051AG  24080.53196885  .00002641  00000-0  18402-3 0  9991,2 52563  53.2175 122.5418 0001868 108.4218 251.6977 15.08826461102805,6917.922,95.438,541.079,538.495,0.0
52563.0,STARLINK-3942,PAYLOAD,2024-03-21 09:26:02,15.08840675,0.0001434,53.216,118.6778,85.2094,274.9061,-1.7285e-05,-5.63e-06,0.0,0 STARLINK-3942,1 52563U 22051AG  24081.39308658 -.00000563  00000-0 -17285-4 0  9991,2 52563  53.2160 118.6778 0001434  85.2094 274.9061 15.08840675103005,6917.878,95.438,540.735,538.751,0.0
52563.0,STARLINK-3942,PAYLOAD,2024-03-22 09:16:49,15.08850906,0.0001609,53.217,114.2215,103.4938,256.6233,0.00016356,2.317e-05,0.0,0 STARLINK-3942,1 52563U 22051AG  24082.38667850  .00002317  00000-0  16356-3 0  9997,2 52563  53.2170 114.2215 0001609 103.4938 256.6233 15.08850906103150,6917.847,95.437,540.825,538.599,0.0
52563.0,STARLINK-3942,PAYLOAD,2024-03-23 05:56:51,15.08831714,0.0001581,53.2166,110.354,106.1834,253.9332,4.6967e-05,4.59e-06,0.0,0 STARLINK-3942,1 52563U 22051AG  24083.24781899  .00000459  00000-0  46967-4 0  9990,2 52563  53.2166 110.3540 0001581 106.1834 253.9332 15.08831714103287,6917.906,95.438,540.864,538.677,0.0
52563.0,STARLINK-3942,PAYLOAD,2024-03-23 18:39:56,15.08837831,0.0001503,53.2154,107.974,78.9059,281.2102,6.8201e-05,7.98e-06,0.0,0 STARLINK-3942,1 52563U 22051AG  24083.77773567  .00000798  00000-0  68201-4 0  9992,2 52563  53.2154 107.9740 0001503  78.9059 281.2102 15.08837831103361,6917.887,95.438,540.792,538.712,0.0
52563.0,STARLINK-3942,PAYLOAD,2024-03-24 10:33:46,15.08866194,0.0001655,53.2153,104.9966,78.7883,281.3295,0.00080781,0.00012601,0.0,0 STARLINK-3942,1 52563U 22051AG  24084.44012598  .00012601  00000-0  80781-3 0  9999,2 52563  53.2153 104.9966 0001655  78.7883 281.3295 15.08866194103467,6917.8,95.436,540.81,538.52,0.0
52563.0,STARLINK-3942,PAYLOAD,2024-03-24 18:30:42,15.08848504,0.0001531,53.2164,103.5103,98.4214,261.6952,0.00042701,6.516e-05,0.0,0 STARLINK-3942,1 52563U 22051AG  24084.77133017  .00006516  00000-0  42701-3 0  9993,2 52563  53.2164 103.5103 0001531  98.4214 261.6952 15.08848504103519,6917.854,95.437,540.779,538.66,0.0
52563.0,STARLINK-3942,PAYLOAD,2024-03-25 18:21:30,15.08842305,0.0001503,53.2145,99.0497,97.3375,262.7788,0.0021174,0.00033573,0.0,0 STARLINK-3942,1 52563U 22051AG  24085.76493992  .00033573  00000-0  21174-2 0  9997,2 52563  53.2145  99.0497 0001503  97.3375 262.7788 15.08842305103666,6917.873,95.437,540.778,538.699,0.0
52563.0,STARLINK-3942,PAYLOAD,2024-03-26 05:29:13,15.08823843,0.0002499,53.2161,96.9662,98.1635,261.9641,0.0010909,0.00017109,0.0,0 STARLINK-3942,1 52563U 22051AG  24086.22863082  .00017109  00000-0  10909-2 0  9991,2 52563  53.2161  96.9662 0002499  98.1635 261.9641 15.08823843103730,6917.93,95.439,541.524,538.066,0.0
52563.0,STARLINK-3942,PAYLOAD,2024-03-26 10:15:23,15.08825558,0.0001633,53.2163,96.0765,95.5447,264.5732,0.00084587,0.00013194,0.0,0 STARLINK-3942,1 52563U 22051AG  24086.42735283  .00013194  00000-0  84587-3 0  9998,2 52563  53.2163  96.0765 0001633  95.5447 264.5732 15.08825558103698,6917.925,95.438,540.919,538.66,0.0
52563.0,STARLINK-3942,PAYLOAD,2024-03-26 18:12:19,15.08831978,0.0001648,53.2171,94.5905,92.5249,267.5932,0.0011524,0.00018096,0.0,0 STARLINK-3942,1 52563U 22051AG  24086.75855644  .00018096  00000-0  11524-2 0  9994,2 52563  53.2171  94.5905 0001648  92.5249 267.5932 15.08831978103811,6917.905,95.438,540.91,538.63,0.0
52563.0,STARLINK-3942,PAYLOAD,2024-03-27 05:20:00,15.08871918,0.0001443,53.2154,92.5102,80.3934,279.7221,0.0020701,0.0003284,0.0,0 STARLINK-3942,1 52563U 22051AG  24087.22222999  .00032840  00000-0  20701-2 0  9998,2 52563  53.2154  92.5102 0001443  80.3934 279.7221 15.08871918103889,6917.783,95.436,540.646,538.65,0.0
52563.0,STARLINK-3942,PAYLOAD,2024-03-27 10:06:09,15.08881486,0.0001436,53.2152,91.6186,78.0281,282.0872,0.001963,0.00031127,0.0,0 STARLINK-3942,1 52563U 22051AG  24087.42094570  .00031127  00000-0  19630-2 0  9998,2 52563  53.2152  91.6186 0001436  78.0281 282.0872 15.08881486103846,6917.754,95.435,540.612,538.625,0.0
52563.0,STARLINK-3942,PAYLOAD,2024-03-28 05:10:46,15.08865476,0.0001241,53.2157,88.0502,93.885,266.2284,0.0014934,0.00023576,0.0,0 STARLINK-3942,1 52563U 22051AG  24088.21582134  .00023576  00000-0  14934-2 0  9995,2 52563  53.2157  88.0502 0001241  93.8850 266.2284 15.08865476104038,6917.803,95.436,540.526,538.809,0.0
52563.0,STARLINK-3942,PAYLOAD,2024-03-28 09:56:56,15.08862893,0.0001335,53.2159,87.1584,89.3684,270.7461,0.0012191,0.00019179,0.0,0 STARLINK-3942,1 52563U 22051AG  24088.41453999  .00019179  00000-0  12191-2 0  9990,2 52563  53.2159  87.1584 0001335  89.3684 270.7461 15.08862893103990,6917.81,95.436,540.599,538.752,0.0
52563.0,STARLINK-3942,PAYLOAD,2024-03-28 16:18:29,15.08841246,0.0001465,53.2163,85.9642,78.2679,281.8477,0.0008179,0.00012753,0.0,0 STARLINK-3942,1 52563U 22051AG  24088.67950354  .00012753  00000-0  81790-3 0  9998,2 52563  53.2163  85.9642 0001465  78.2679 281.8477 15.08841246104104,6917.877,95.437,540.755,538.728,0.0
52563.0,STARLINK-3942,PAYLOAD,2024-03-29 05:01:34,15.08827782,0.0001673,53.2172,83.5904,113.9879,246.1289,0.00048871,7.496e-05,0.0,0 STARLINK-3942,1 52563U 22051AG  24089.20943020  .00007496  00000-0  48871-3 0  9991,2 52563  53.2172  83.5904 0001673 113.9879 246.1289 15.08827782104181,6917.918,95.438,540.94,538.625,0.0
52563.0,STARLINK-3942,PAYLOAD,2024-03-29 06:36:58,15.08826133,0.0001552,53.2174,83.2936,102.6958,257.4208,0.00051674,7.942e-05,0.0,0 STARLINK-3942,1 52563U 22051AG  24089.27567197  .00007942  00000-0  51674-3 0  9996,2 52563  53.2174  83.2936 0001552 102.6958 257.4208 15.08826133104123,6917.923,95.438,540.861,538.714,0.0
52563.0,STARLINK-3942,PAYLOAD,2024-03-29 16:09:17,15.08834908,0.000155,53.2179,81.5092,104.8857,255.2307,0.00070607,0.00010965,0.0,0 STARLINK-3942,1 52563U 22051AG  24089.67311468  .00010965  00000-0  70607-3 0  9994,2 52563  53.2179  81.5092 0001550 104.8857 255.2307 15.08834908104183,6917.896,95.438,540.833,538.689,0.0
52563.0,STARLINK-3942,PAYLOAD,2024-03-30 04:52:21,15.08860304,0.0001419,53.217,79.1313,108.9279,251.1867,0.0010806,0.00016961,0.0,0 STARLINK-3942,1 52563U 22051AG  24090.20302877  .00016961  00000-0  10806-2 0  9995,2 52563  53.2170  79.1313 0001419 108.9279 251.1867 15.08860304104332,6917.818,95.436,540.665,538.702,0.0
52563.0,STARLINK-3942,PAYLOAD,2024-03-30 06:27:44,15.08862182,0.0001422,53.2171,78.8338,107.2999,252.8149,0.00107,0.00016792,0.0,0 STARLINK-3942,1 52563U 22051AG  24090.26926802  .00016792  00000-0  10700-2 0  9996,2 52563  53.2171  78.8338 0001422 107.2999 252.8149 15.08862182104271,6917.813,95.436,540.661,538.694,0.0
52563.0,STARLINK-3942,PAYLOAD,2024-03-30 16:00:03,15.08858321,0.0001233,53.2161,77.048,94.2722,265.8411,0.00035896,5.432e-05,0.0,0 STARLINK-3942,1 52563U 22051AG  24090.66670380  .00005432  00000-0  35896-3 0  9990,2 52563  53.2161  77.0480 0001233  94.2722 265.8411 15.08858321104409,6917.824,95.436,540.542,538.836,0.0
52563.0,STARLINK-3942,PAYLOAD,2024-03-31 04:43:08,15.08845641,0.0001395,53.2168,74.6703,99.9261,260.1889,4.6123e-05,4.46e-06,0.0,0 STARLINK-3942,1 52563U 22051AG  24091.19662509  .00000446  00000-0  46123-4 0  9999,2 52563  53.2168  74.6703 0001395  99.9261 260.1889 15.08845641104482,6917.863,95.437,540.693,538.763,0.0
52563.0,STARLINK-3942,PAYLOAD,2024-03-31 07:53:54,15.08854776,0.0001452,53.2169,74.0745,94.4048,265.711,0.00038844,5.902e-05,0.0,0 STARLINK-3942,1 52563U 22051AG  24091.32910503  .00005902  00000-0  38844-3 0  9996,2 52563  53.2169  74.0745 0001452  94.4048 265.7110 15.08854776104432,6917.835,95.437,540.705,538.696,0.0
52563.0,STARLINK-3942,PAYLOAD,2024-03-31 15:50:50,15.08852118,0.000146,53.2165,72.5871,89.0071,271.1089,0.00023608,3.472e-05,0.0,0 STARLINK-3942,1 52563U 22051AG  24091.66030294  .00003472  00000-0  23608-3 0  9995,2 52563  53.2165  72.5871 0001460  89.0071 271.1089 15.08852118104485,6917.843,95.437,540.718,538.698,0.0
52563.0,STARLINK-3942,PAYLOAD,2024-04-01 07:44:41,15.08853695,0.0001561,53.2174,69.6135,86.831,273.2861,0.00029131,4.353e-05,0.0,0 STARLINK-3942,1 52563U 22051AG  24092.32270011  .00004353  00000-0  29131-3 0  9998,2 52563  53.2174  69.6135 0001561  86.8310 273.2861 15.08853695104659,6917.839,95.437,540.783,538.624,0.0
52563.0,STARLINK-3942,PAYLOAD,2024-04-01 15:41:37,15.08845656,0.0001398,53.2169,68.1263,93.3625,266.7527,0.00013811,1.911e-05,0.0,0 STARLINK-3942,1 52563U 22051AG  24092.65390116  .00001911  00000-0  13811-3 0  9998,2 52563  53.2169  68.1263 0001398  93.3625 266.7527 15.08845656104709,6917.863,95.437,540.695,538.761,0.0
52563.0,STARLINK-3942,PAYLOAD,2024-04-02 04:24:42,15.0884485,0.0001443,53.2175,65.7478,96.5539,263.5618,0.00013639,1.884e-05,0.0,0 STARLINK-3942,1 52563U 22051AG  24093.18382151  .00001884  00000-0  13639-3 0  9994,2 52563  53.2175  65.7478 0001443  96.5539 263.5618 15.08844850104719,6917.866,95.437,540.729,538.732,0.0
52563.0,STARLINK-3942,PAYLOAD,2024-04-02 15:32:24,15.0884205,0.0001424,53.2167,63.6664,97.0687,263.0467,0.00010134,1.325e-05,0.0,0 STARLINK-3942,1 52563U 22051AG  24093.64750219  .00001325  00000-0  10134-3 0  9996,2 52563  53.2167  63.6664 0001424  97.0687 263.0467 15.08842050104855,6917.874,95.437,540.724,538.754,0.0
